NOAA 1 [-]              
1 04793U 70106A   20120.77714920 -.00000043  00000-0  10724-4 0  9995
2 04793 101.6587 189.7059 0031743  35.2454 111.7803 12.53994016259987
NOAA 2 (ITOS-D) [-]     
1 06235U 72082A   20120.92456809 -.00000013  00000-0  20226-3 0  9993
2 06235 101.8469  90.8082 0004383 122.7322 300.3074 12.53123292174459
NOAA 3 [-]              
1 06920U 73086A   20120.67463880 -.00000052  00000-0 -49606-4 0  9996
2 06920 102.1020  92.2968 0006096 290.8573 242.5469 12.40341538104239
NOAA 4 [-]              
1 07529U 74089A   20120.75374618 -.00000043  00000-0  13273-4 0  9995
2 07529 101.8052  90.7212 0009087 155.1870 275.1119 12.53140877 79004
NOAA 5 [-]              
1 09057U 76077A   20120.67698787 -.00000026  00000-0  14390-3 0  9990
2 09057 101.9823  89.7797 0010126 137.4390  35.8014 12.37751795977372
TIROS N [P]             
1 11060U 78096A   20120.73074120 -.00000006  00000-0  18210-4 0  9990
2 11060  98.7434 179.3404 0009998 216.5844 143.4650 14.18265357361227
NOAA 6 [P]              
1 11416U 79057A   20120.73007712  .00000041  00000-0  30777-4 0  9996
2 11416  98.6564 119.5783 0011126  40.9092 319.2925 14.33575432129945
NOAA 7 [-]              
1 12553U 81059A   20120.90845750 -.00000037  00000-0  49156-5 0  9993
2 12553  99.0862 140.4475 0011832 161.6264 198.5339 14.17274409  7518
NOAA 8 [-]              
1 13923U 83022A   20120.67516908  .00000011  00000-0  21747-4 0  9997
2 13923  98.6167 106.4866 0014657 333.5474  26.4957 14.28700437931204
NOAA 9 [P]              
1 15427U 84123A   20120.83776149  .00000026  00000-0  36112-4 0  9992
2 15427  98.9372  74.9635 0014190 212.4396 176.7889 14.16095945826416
NOAA 10 [-]             
1 16969U 86073A   20120.74242975  .00000002  00000-0  18065-4 0  9996
2 16969  98.5013 113.5438 0013392  78.6829  93.9251 14.28095893749684
NOAA 11 [-]             
1 19531U 88089A   20120.82016244 -.00000019  00000-0  11229-4 0  9994
2 19531  98.4169 142.9616 0009996 263.0634  96.9404 14.15254312630687
NOAA 12 [-]             
1 21263U 91032A   20120.75677251 -.00000011  00000-0  13263-4 0  9996
2 21263  98.5079 132.1270 0014849  97.5354 262.7514 14.25912755505759
NOAA 13 [-]             
1 22739U 93050A   20120.75888984  .00000001  00000-0  22535-4 0  9994
2 22739  98.4582 131.2849 0010527  59.2205 301.0003 14.12753028377105
NOAA 14 [-]             
1 23455U 94089A   20120.84687732 -.00000037  00000-0  24160-5 0  9998
2 23455  98.5486 174.4391 0010209  45.2177 314.9826 14.14143337306663
NOAA 15 [B]             
1 25338U 98030A   20120.80804788  .00000052  00000-0  40265-4 0  9997
2 25338  98.7214 146.0960 0011202  49.3415 310.8737 14.25961334142040
NOAA 16 [-]             
1 26536U 00055A   20120.77171748 -.00000009  00000-0  18386-4 0  9999
2 26536  98.7357 191.0113 0009843 220.3831 139.6611 14.13250565307360
NOAA 17 [-]             
1 27453U 02032A   20120.85789695 -.00000007  00000-0  15274-4 0  9991
2 27453  98.5801  68.4485 0012211  24.3439 335.8315 14.25064231927960
NOAA 18 [B]             
1 28654U 05018A   20120.85353230  .00000078  00000-0  66789-4 0  9998
2 28654  99.0483 176.8170 0014255  12.7366 347.4163 14.12506443770059
NOAA 19 [+]             
1 33591U 09005A   20120.78312782  .00000044  00000-0  49130-4 0  9997
2 33591  99.1968 124.8632 0013477 208.6411 151.4021 14.12405115578261
SUOMI NPP [+]           
1 37849U 11061A   20120.84120420  .00000004  00000-0  22748-4 0  9997
2 37849  98.7337  59.4233 0001397  73.8526   1.2817 14.19550085440732
NOAA 20 [+]             
1 43013U 17073A   20120.86231075  .00000013  00000-0  26946-4 0  9991
2 43013  98.7149  59.5701 0001485  95.2304 264.9042 14.19552549126763
